GSAT-10                 
1 38779U 12051B   26187.66432233 -.00000149  00000+0  00000+0 0  9999
2 38779   0.0420 240.1474 0007864 214.3085 152.3326  1.00269440 50296
INTELSAT 23 (IS-23)     
1 38867U 12057A   26188.05637558 -.00000270  00000+0  00000+0 0  9999
2 38867   0.0130  52.9192 0000405  98.8720 100.5402  1.00275567 50155
BEIDOU-2 G6             
1 38953U 12059A   26188.09043057 -.00000162  00000+0  00000+0 0  9996
2 38953   4.4686  73.3130 0009150 330.3631 357.9238  1.00269175 50103
LUCH-5B                 
1 38977U 12061A   26187.92789431 -.00000128  00000+0  00000+0 0  9991
2 38977  10.5235  49.6822 0003423 138.9528  54.0691  1.00271941 49802
YAMAL 300K              
1 38978U 12061B   26187.82479645  .00000086  00000+0  00000+0 0  9996
2 38978   0.0316 229.8753 0000246  41.6093 133.1989  1.00271607 49829
STAR ONE C3             
1 38991U 12062A   26188.13022345  .00000000  00000+0  00000+0 0  9994
2 38991   0.0217  29.7832 0002218  93.7284 133.4804  1.00271079 49967
EUTELSAT 21B            
1 38992U 12062B   26188.16572670  .00000145  00000+0  00000+0 0  9999
2 38992   0.0647 356.8988 0003203 109.3211 260.1614  1.00270374 50023
ECHOSTAR 16             
1 39008U 12065A   26188.11659656 -.00000267  00000+0  00000+0 0  9992
2 39008   0.0164  27.9106 0001965  79.3852 158.2788  1.00270784 49846
ZHONGXING-12            
1 39017U 12067A   26188.09103723 -.00000192  00000+0  00000+0 0  9997
2 39017   0.0470  94.2990 0003059   2.8724 308.1740  1.00270855 49707
EUTELSAT 70B            
1 39020U 12069A   26188.08774388 -.00000029  00000+0  00000+0 0  9992
2 39020   0.0634 342.7481 0003421 125.3143 279.0751  1.00273487 49700
YAMAL 402               
1 39022U 12070A   26188.15589459  .00000100  00000+0  00000+0 0  9996
2 39022   1.3128  83.9190 0003763  20.2821 291.9438  1.00272020 49594
SKYNET 5D               
1 39034U 12075A   26188.15546126  .00000114  00000+0  00000+0 0  9993
2 39034   0.0666   6.2432 0003704 109.2895 278.3183  1.00272083 49350
MEXSAT 3                
1 39035U 12075B   26188.12233676  .00000000  00000+0  00000+0 0  9998
2 39035   0.0184  27.6015 0001172  78.3866 108.3483  1.00267516  7254
TDRS 11                 
1 39070U 13004A   26188.11052940  .00000093  00000+0  00000+0 0  9994
2 39070   3.5500  31.5803 0004821  27.8409  91.1172  1.00276550 46893
AMAZONAS 3              
1 39078U 13006A   26188.11659656 -.00000267  00000+0  00000+0 0  9995
2 39078   0.0600 238.7829 0003142 270.3731 116.8995  1.00271205 45115
AZERSPACE 1             
1 39079U 13006B   26188.15461182  .00000148  00000+0  00000+0 0  9992
2 39079   0.0357 270.7743 0001873 231.2559 244.7457  1.00272087 49004
SBIRS GEO-2 (USA 241)   
1 39120U 13011A   26187.92130762 -.00000274  00000+0  00000+0 0  9997
2 39120   4.5312  52.5131 0002010  45.1363 109.1078  1.00271262 48733
EUTELSAT 117 WEST A     
1 39122U 13012A   26188.12190343  .00000002  00000+0  00000+0 0  9992
2 39122   0.0099   4.2674 0002777 105.8044 102.0939  1.00271672 48636
ANIK G1                 
1 39127U 13014A   26188.12312683 -.00000059  00000+0  00000+0 0  9995
2 39127   0.0190  40.1727 0001710  73.8457 108.0969  1.00271440 48451
ZHONGXING-11            
1 39157U 13020A   26187.87925676 -.00000276  00000+0  00000+0 0  9999
2 39157   0.0162  23.3063 0002578  58.4595 257.5359  1.00273104 48096
EUTELSAT 7B             
1 39163U 13022A   26188.14644788  .00000063  00000+0  00000+0 0  9994
2 39163   0.0642 354.9047 0003895  52.1261 297.7997  1.00271262 48148
WGS F5 (USA 243)        
1 39168U 13024A   26188.06334913  .00000000  00000+0  00000+0 0  9999
2 39168   0.0199  24.8211 0000305 189.7934  40.7253  1.00268974 47374
SES-6                   
1 39172U 13026A   26188.19350480 -.00000246  00000+0  00000+0 0  9990
2 39172   0.0158 358.7421 0002491 101.8351 213.7486  1.00270606 47928
IRNSS-1A                
1 39199U 13034A   26186.73027412  .00000068  00000+0  00000+0 0  9993
2 39199  35.7606  63.6043 0017858 181.6646 356.4955  1.00280420 47558
MUOS-2                  
1 39206U 13036A   26187.89390350 -.00000001  00000+0  00000+0 0  9994
2 39206   5.0338  45.5531 0052132 176.5198 196.5509  1.00270994 47394
ALPHASAT                
1 39215U 13038A   26188.07873050  .00000147  00000+0  00000+0 0  9990
2 39215   2.9984   1.1586 0002433 126.5430 210.5787  1.00274018 44212
INSAT-3D                
1 39216U 13038B   26187.95680969 -.00000325  00000+0  00000+0 0  9991
2 39216   1.9738  82.3002 0000537  55.0707 261.5348  1.00272872 47273
WGS F6 (USA 244)        
1 39222U 13041A   26187.69054397  .00000104  00000+0  00000+0 0  9997
2 39222   0.0190  36.9691 0001624 186.5270 174.5993  1.00272216 46252
ES'HAIL 1               
1 39233U 13044A   26188.16572670  .00000158  00000+0  00000+0 0  9993
2 39233   0.0468 359.7345 0002326 108.4791 262.0763  1.00272098 46824
GSAT-7                  
1 39234U 13044B   26188.08843721 -.00000061  00000+0  00000+0 0  9997
2 39234   0.1292  90.4793 0002937 179.1071 121.2668  1.00271456 45456
AMOS-4                  
1 39237U 13045A   26188.15788794  .00000022  00000+0  00000+0 0  9993
2 39237   0.0280  82.5799 0002201 356.1244 328.2679  1.00272739 47151
AEHF-3 (USA 246)        
1 39256U 13050A   26188.20177803  .00000041  00000+0  00000+0 0  9990
2 39256   5.3420  67.0025 0088276 187.6976 338.8763  1.00269071 45852
