OBJECT_NAME,OBJECT_ID,EPOCH,MEAN_MOTION,ECCENTRICITY,INCLINATION,RA_OF_ASC_NODE,ARG_OF_PERICENTER,MEAN_ANOMALY,EPHEMERIS_TYPE,CLASSIFICATION_TYPE,NORAD_CAT_ID,ELEMENT_SET_NO,REV_AT_EPOCH,BSTAR,MEAN_MOTION_DOT,MEAN_MOTION_DDOT
GSAT-10,2012-051B,2026-07-06T15:56:37.449312,1.00269440,.0007864,0.0420,240.1474,214.3085,152.3326,0,U,38779,999,5029,0,-.149E-5,0
INTELSAT 23 (IS-23),2012-057A,2026-07-07T01:21:10.850112,1.00275567,.0000405,0.0130,52.9192,98.8720,100.5402,0,U,38867,999,5015,0,-.27E-5,0
BEIDOU-2 G6,2012-059A,2026-07-07T02:10:13.201248,1.00269175,.000915,4.4686,73.3130,330.3631,357.9238,0,U,38953,999,5010,0,-.162E-5,0
LUCH-5B,2012-061A,2026-07-06T22:16:10.068384,1.00271941,.0003423,10.5235,49.6822,138.9528,54.0691,0,U,38977,999,4980,0,-.128E-5,0
YAMAL 300K,2012-061B,2026-07-06T19:47:42.413280,1.00271607,.0000246,0.0316,229.8753,41.6093,133.1989,0,U,38978,999,4982,0,.86E-6,0
STAR ONE C3,2012-062A,2026-07-07T03:07:31.306080,1.00271079,.0002218,0.0217,29.7832,93.7284,133.4804,0,U,38991,999,4996,0,0,0
EUTELSAT 21B,2012-062B,2026-07-07T03:58:38.786880,1.00270374,.0003203,0.0647,356.8988,109.3211,260.1614,0,U,38992,999,5002,0,.145E-5,0
ECHOSTAR 16,2012-065A,2026-07-07T02:47:53.942784,1.00270784,.0001965,0.0164,27.9106,79.3852,158.2788,0,U,39008,999,4984,0,-.267E-5,0
ZHONGXING-12,2012-067A,2026-07-07T02:11:05.616672,1.00270855,.0003059,0.0470,94.2990,2.8724,308.1740,0,U,39017,999,4970,0,-.192E-5,0
EUTELSAT 70B,2012-069A,2026-07-07T02:06:21.071232,1.00273487,.0003421,0.0634,342.7481,125.3143,279.0751,0,U,39020,999,4970,0,-.29E-6,0
YAMAL 402,2012-070A,2026-07-07T03:44:29.292576,1.00272020,.0003763,1.3128,83.9190,20.2821,291.9438,0,U,39022,999,4959,0,.1E-5,0
SKYNET 5D,2012-075A,2026-07-07T03:43:51.852864,1.00272083,.0003704,0.0666,6.2432,109.2895,278.3183,0,U,39034,999,4935,0,.114E-5,0
MEXSAT 3,2012-075B,2026-07-07T02:56:09.896064,1.00267516,.0001172,0.0184,27.6015,78.3866,108.3483,0,U,39035,999,725,0,0,0
TDRS 11,2013-004A,2026-07-07T02:39:09.740160,1.00276550,.0004821,3.5500,31.5803,27.8409,91.1172,0,U,39070,999,4689,0,.93E-6,0
AMAZONAS 3,2013-006A,2026-07-07T02:47:53.942784,1.00271205,.0003142,0.0600,238.7829,270.3731,116.8995,0,U,39078,999,4511,0,-.267E-5,0
AZERSPACE 1,2013-006B,2026-07-07T03:42:38.461248,1.00272087,.0001873,0.0357,270.7743,231.2559,244.7457,0,U,39079,999,4900,0,.148E-5,0
SBIRS GEO-2 (USA 241),2013-011A,2026-07-06T22:06:40.978368,1.00271262,.000201,4.5312,52.5131,45.1363,109.1078,0,U,39120,999,4873,0,-.274E-5,0
EUTELSAT 117 WEST A,2013-012A,2026-07-07T02:55:32.456352,1.00271672,.0002777,0.0099,4.2674,105.8044,102.0939,0,U,39122,999,4863,0,.2E-7,0
ANIK G1,2013-014A,2026-07-07T02:57:18.158112,1.00271440,.000171,0.0190,40.1727,73.8457,108.0969,0,U,39127,999,4845,0,-.59E-6,0
ZHONGXING-11,2013-020A,2026-07-06T21:06:07.784064,1.00273104,.0002578,0.0162,23.3063,58.4595,257.5359,0,U,39157,999,4809,0,-.276E-5,0
EUTELSAT 7B,2013-022A,2026-07-07T03:30:53.096832,1.00271262,.0003895,0.0642,354.9047,52.1261,297.7997,0,U,39163,999,4814,0,.63E-6,0
WGS F5 (USA 243),2013-024A,2026-07-07T01:31:13.364832,1.00268974,.0000305,0.0199,24.8211,189.7934,40.7253,0,U,39168,999,4737,0,0,0
SES-6,2013-026A,2026-07-07T04:38:38.814720,1.00270606,.0002491,0.0158,358.7421,101.8351,213.7486,0,U,39172,999,4792,0,-.246E-5,0
IRNSS-1A,2013-034A,2026-07-05T17:31:35.683968,1.00280420,.00178584,35.7606,63.6043,181.6646,356.4955,0,U,39199,999,4755,0,.68E-6,0
MUOS-2,2013-036A,2026-07-06T21:27:13.262400,1.00270994,.0052132,5.0338,45.5531,176.5198,196.5509,0,U,39206,999,4739,0,-.1E-7,0
ALPHASAT,2013-038A,2026-07-07T01:53:22.315200,1.00274018,.0002433,2.9984,1.1586,126.5430,210.5787,0,U,39215,999,4421,0,.147E-5,0
INSAT-3D,2013-038B,2026-07-06T22:57:48.357216,1.00272872,.0000537,1.9738,82.3002,55.0707,261.5348,0,U,39216,999,4727,0,-.325E-5,0
WGS F6 (USA 244),2013-041A,2026-07-06T16:34:22.999008,1.00272216,.0001624,0.0190,36.9691,186.5270,174.5993,0,U,39222,999,4625,0,.104E-5,0
ES'HAIL 1,2013-044A,2026-07-07T03:58:38.786880,1.00272098,.0002326,0.0468,359.7345,108.4791,262.0763,0,U,39233,999,4682,0,.158E-5,0
GSAT-7,2013-044B,2026-07-07T02:07:20.974944,1.00271456,.0002937,0.1292,90.4793,179.1071,121.2668,0,U,39234,999,4545,0,-.61E-6,0
AMOS-4,2013-045A,2026-07-07T03:47:21.518016,1.00272739,.0002201,0.0280,82.5799,356.1244,328.2679,0,U,39237,999,4715,0,.22E-6,0
AEHF-3 (USA 246),2013-050A,2026-07-07T04:50:33.621792,1.00269071,.0088276,5.3420,67.0025,187.6976,338.8763,0,U,39256,999,4585,0,.41E-6,0
